[{"OBJECT_NAME":"LAPAN-A3","OBJECT_ID":"2016-040E","EPOCH":"2026-03-09T23:01:57.724896","MEAN_MOTION":15.3238951,"ECCENTRICITY":0.00109839,"INCLINATION":97.1488,"RA_OF_ASC_NODE":68.4254,"ARG_OF_PERICENTER":22.062,"MEAN_ANOMALY":338.1093,"EPHEMERIS_TYPE":0,"CLASSIFICATION_TYPE":"U","NORAD_CAT_ID":41603,"ELEMENT_SET_NO":999,"REV_AT_EPOCH":53961,"BSTAR":0.00017567445,"MEAN_MOTION_DOT":5.428e-5,"MEAN_MOTION_DDOT":0},{"OBJECT_NAME":"STARLINK-2424","OBJECT_ID":"2021-018AZ","EPOCH":"2026-03-09T17:23:54.809952","MEAN_MOTION":15.30202261,"ECCENTRICITY":0.0001251,"INCLINATION":53.1586,"RA_OF_ASC_NODE":244.8681,"ARG_OF_PERICENTER":87.0347,"MEAN_ANOMALY":273.0797,"EPHEMERIS_TYPE":0,"CLASSIFICATION_TYPE":"U","NORAD_CAT_ID":47834,"ELEMENT_SET_NO":999,"REV_AT_EPOCH":27675,"BSTAR":0.00013894922,"MEAN_MOTION_DOT":3.758e-5,"MEAN_MOTION_DDOT":0}]
